{
"type": "FeatureCollection",
"name": "ejidos_4loc",
"crs": { "type": "name", "properties": { "name": "urn:ogc:def:crs:OGC:1.3:CRS84" } },
"features": [
{ "type": "Feature", "properties": { "gid": "1252" }, "geometry": { "type": "MultiPolygon", "coordinates": [ [ [ [ -63.192806206999933, -32.398901874999979 ], [ -63.153805739999939, -32.419902137999941 ], [ -63.169050482999978, -32.423963334999939 ], [ -63.17113206199997, -32.426749481999934 ], [ -63.165015370999981, -32.430058525999982 ], [ -63.173356831999968, -32.440844415999948 ], [ -63.17923392199998, -32.437685904999967 ], [ -63.186070988999973, -32.446948469999938 ], [ -63.171845668999936, -32.454588057999956 ], [ -63.180417247999969, -32.466622223999934 ], [ -63.181426926999961, -32.466815069999939 ], [ -63.181326457999944, -32.466451034999977 ], [ -63.181333836999954, -32.465998541999966 ], [ -63.181532912999955, -32.46564561799994 ], [ -63.181837573999985, -32.465302064999946 ], [ -63.181920437999963, -32.464999519999935 ], [ -63.181908520999968, -32.464567109999962 ], [ -63.181830017999971, -32.464137970999957 ], [ -63.181897416999959, -32.463610426999935 ], [ -63.18246701399994, -32.463180716999943 ], [ -63.182821936999972, -32.463114406999978 ], [ -63.18314354599994, -32.462963448999972 ], [ -63.183479173999956, -32.46280590899994 ], [ -63.183730986999933, -32.462548922999929 ], [ -63.183952991999945, -32.462161765999952 ], [ -63.184307919999981, -32.462100213999975 ], [ -63.184888756999953, -32.462223882999979 ], [ -63.185253918999933, -32.462654473999976 ], [ -63.18562080099997, -32.462884358999929 ], [ -63.185894794999967, -32.463056040999959 ], [ -63.186292598999955, -32.463055452999981 ], [ -63.187009934999935, -32.463287851999951 ], [ -63.187371569999982, -32.463643887999979 ], [ -63.187805356999945, -32.463724186999968 ], [ -63.188161464999951, -32.464080908999961 ], [ -63.188344922999931, -32.464348574999974 ], [ -63.188606132999951, -32.464522048999982 ], [ -63.188800728999979, -32.464684801999965 ], [ -63.189187316999949, -32.464791281999965 ], [ -63.189553885999942, -32.465302514999962 ], [ -63.189920513999937, -32.465547682999954 ], [ -63.190202495999984, -32.465963812999973 ], [ -63.19046358099996, -32.466510985999946 ], [ -63.190836613999977, -32.466879361999929 ], [ -63.19127989499998, -32.467087038999978 ], [ -63.191743643999985, -32.467104080999945 ], [ -63.192230271999961, -32.46705658999997 ], [ -63.192722215999936, -32.467055837999965 ], [ -63.193163657999946, -32.466543376999937 ], [ -63.193275611999979, -32.466227794999952 ], [ -63.193555585999945, -32.465840531999959 ], [ -63.193554529999972, -32.46534663999995 ], [ -63.193279777999976, -32.464873657999931 ], [ -63.192941943999983, -32.464606379999964 ], [ -63.19283584599998, -32.464213794999978 ], [ -63.192561054999942, -32.463863020999952 ], [ -63.192201623999949, -32.463538636999942 ], [ -63.192011240999932, -32.463193793999949 ], [ -63.192024636999975, -32.462854554999979 ], [ -63.191738236999981, -32.462372 ], [ -63.191923748999955, -32.461587149999957 ], [ -63.192295300999945, -32.461265112999968 ], [ -63.192640043999972, -32.461036323999963 ], [ -63.193308078999962, -32.460825313999976 ], [ -63.193742612999984, -32.460885872999938 ], [ -63.194121379999956, -32.460641299999963 ], [ -63.194650186999979, -32.460532268999941 ], [ -63.195275224999932, -32.460507493999955 ], [ -63.195802411999978, -32.460643602999937 ], [ -63.196374339999977, -32.460750061999931 ], [ -63.196719250999934, -32.460987596999928 ], [ -63.197181477999948, -32.461064643999975 ], [ -63.197718968999936, -32.461154234999981 ], [ -63.198206495999955, -32.461377579999976 ], [ -63.198681073999978, -32.461447964999934 ], [ -63.199180658999978, -32.461447175999979 ], [ -63.19946863499996, -32.461366928999951 ], [ -63.19996750699994, -32.461043656999948 ], [ -63.200238697999964, -32.460729113999946 ], [ -63.200633793999941, -32.460383639999975 ], [ -63.20085549099997, -32.460031515999958 ], [ -63.20094914799995, -32.459782903999951 ], [ -63.200986535999959, -32.459346376999974 ], [ -63.200927848999982, -32.458758934999935 ], [ -63.200897871999985, -32.457696166999938 ], [ -63.200757029999977, -32.457145504999971 ], [ -63.200593367999943, -32.456505611999944 ], [ -63.200820673999942, -32.455957056999978 ], [ -63.201191018999964, -32.455668757999945 ], [ -63.20169425399996, -32.455667952999931 ], [ -63.202321058999985, -32.455732509999962 ], [ -63.202604596999947, -32.456040482999981 ], [ -63.202807090999954, -32.456260424999982 ], [ -63.203189634999944, -32.456391887999928 ], [ -63.203552419999937, -32.45642881699996 ], [ -63.203832998999985, -32.456751853999947 ], [ -63.203979593999975, -32.456987813999945 ], [ -63.204130749999933, -32.457205009999939 ], [ -63.204485232999957, -32.457504406999931 ], [ -63.205581038999981, -32.458051632999968 ], [ -63.206384788999969, -32.45822288599993 ], [ -63.207197376999943, -32.458232083999974 ], [ -63.20770691599995, -32.458163862999982 ], [ -63.208016622999935, -32.457934079999973 ], [ -63.208162784999956, -32.457709327999964 ], [ -63.208185721999939, -32.457408740999938 ], [ -63.208184830999983, -32.457021476999955 ], [ -63.207919856999979, -32.456686014999946 ], [ -63.207402418999948, -32.456249390999972 ], [ -63.207066831999953, -32.456029616999956 ], [ -63.206751137999959, -32.455786290999981 ], [ -63.206305404999966, -32.455436548999955 ], [ -63.20612002699994, -32.455149433999964 ], [ -63.205964720999987, -32.454862267999943 ], [ -63.205707815999972, -32.454560262999962 ], [ -63.205271255999946, -32.454191745999935 ], [ -63.205207310999981, -32.453868069999942 ], [ -63.205136990999961, -32.453573983999945 ], [ -63.204928049999978, -32.453312009999934 ], [ -63.204914585999973, -32.452921447999984 ], [ -63.205037885999957, -32.451815143999966 ], [ -63.204915918999973, -32.450934758999949 ], [ -63.204891295999971, -32.450629776999961 ], [ -63.204957587999957, -32.450230426999951 ], [ -63.204731152999955, -32.449962421999942 ], [ -63.204621634999967, -32.44942888199995 ], [ -63.204458781999961, -32.449189918999934 ], [ -63.203997209999955, -32.448838303999935 ], [ -63.203861557999971, -32.448449540999945 ], [ -63.203350572999966, -32.447850998999968 ], [ -63.203082035999955, -32.447685068999931 ], [ -63.203001061999942, -32.44742403999993 ], [ -63.202822177999963, -32.447284369999977 ], [ -63.202745250999953, -32.44704872899996 ], [ -63.20251249599994, -32.446829642999944 ], [ -63.202311376999944, -32.44676186199996 ], [ -63.202011550999941, -32.446459629999936 ], [ -63.201894496999955, -32.446252476999973 ], [ -63.201759842999934, -32.44601417399997 ], [ -63.201752470999963, -32.445578161999947 ], [ -63.201716678999958, -32.44493671999993 ], [ -63.202179369999953, -32.444216166999979 ], [ -63.202498224999943, -32.444152274999965 ], [ -63.202746385999944, -32.443992438999942 ], [ -63.203129449999949, -32.44365462199994 ], [ -63.203534046999948, -32.443501620999939 ], [ -63.204017103999945, -32.443467533999979 ], [ -63.204394209999975, -32.443691677999936 ], [ -63.204692429999966, -32.443691193999939 ], [ -63.20508044099995, -32.443690562999961 ], [ -63.205573364999964, -32.444131854999966 ], [ -63.205844830999979, -32.444509009999933 ], [ -63.206175873999939, -32.444908865999935 ], [ -63.206165920999979, -32.44511954099994 ], [ -63.206358717999933, -32.445439830999931 ], [ -63.206711549999966, -32.445839504999981 ], [ -63.207075336999935, -32.446198469999956 ], [ -63.207431032999978, -32.44637247199995 ], [ -63.207733143999974, -32.446459267999956 ], [ -63.207964171999947, -32.446455856999933 ], [ -63.208230262999962, -32.44635614699996 ], [ -63.208372328999985, -32.446226486999933 ], [ -63.209375626999986, -32.446224822999966 ], [ -63.209691433999978, -32.445998632999931 ], [ -63.210072687999968, -32.445898152999973 ], [ -63.21030514499995, -32.44563342899994 ], [ -63.210521967999966, -32.445327899999938 ], [ -63.210759650999933, -32.445152914999937 ], [ -63.211050763999935, -32.444938592999961 ], [ -63.211320651999984, -32.444687225999928 ], [ -63.21151542399997, -32.444400921999943 ], [ -63.212073309999937, -32.444050087999983 ], [ -63.212331909999932, -32.443769735999979 ], [ -63.213117162999936, -32.44313498899993 ], [ -63.213546304999966, -32.443134261999944 ], [ -63.213801606999937, -32.443019553999932 ], [ -63.214236586999959, -32.442858366999928 ], [ -63.214680537999982, -32.442857611999955 ], [ -63.215180888999953, -32.442576840999948 ], [ -63.215913917999956, -32.442475739999963 ], [ -63.216606598999988, -32.442438477999929 ], [ -63.217082605999963, -32.44250085699997 ], [ -63.217231713999979, -32.44250059999996 ], [ -63.217762221999976, -32.442261176999978 ], [ -63.217982413999948, -32.442221693999954 ], [ -63.218432714999949, -32.441802625999969 ], [ -63.219222541999955, -32.441721895999933 ], [ -63.219267428999956, -32.441687740999953 ], [ -63.219591254999955, -32.441441336999958 ], [ -63.219898407999949, -32.441207616999975 ], [ -63.22040747799997, -32.441114831999982 ], [ -63.220721601999969, -32.440971870999931 ], [ -63.221005074999937, -32.440715552999961 ], [ -63.221224445999951, -32.440216366999948 ], [ -63.221148791999951, -32.439765024999929 ], [ -63.221306518999938, -32.438899602999982 ], [ -63.221201363999967, -32.437925271999973 ], [ -63.220748966999963, -32.437471560999938 ], [ -63.220123446999935, -32.436724237999954 ], [ -63.220121707999965, -32.436008720999951 ], [ -63.219766457999981, -32.435632318999978 ], [ -63.219947045999959, -32.435208809999949 ], [ -63.219809341999962, -32.434593520999954 ], [ -63.219819019999932, -32.434265055999958 ], [ -63.220186460999969, -32.433997965999936 ], [ -63.220185883999932, -32.433760645999939 ], [ -63.22088471099994, -32.43337803999998 ], [ -63.221215743999949, -32.432884139999942 ], [ -63.222076809999976, -32.432613384999968 ], [ -63.22241143499997, -32.432336628999963 ], [ -63.222667473999934, -32.432164618999934 ], [ -63.222908145999952, -32.43185671699996 ], [ -63.223195766999936, -32.431679311999972 ], [ -63.223441313999956, -32.431110384999954 ], [ -63.223543793999966, -32.43062077999997 ], [ -63.223328223999943, -32.430105823999952 ], [ -63.223417152999957, -32.42952254599993 ], [ -63.223640632999945, -32.429213229999959 ], [ -63.223928566999973, -32.428814700999965 ], [ -63.224283955999965, -32.428486753999948 ], [ -63.224462133999964, -32.428322331999937 ], [ -63.224652556999956, -32.427941844999964 ], [ -63.224991985999964, -32.427510108999968 ], [ -63.224991561999957, -32.427339272999973 ], [ -63.225599882999973, -32.426856120999958 ], [ -63.226544094999952, -32.426006016999963 ], [ -63.227046008999935, -32.42555411799998 ], [ -63.227509357999963, -32.425483976999942 ], [ -63.227957985999979, -32.425547662999975 ], [ -63.228540272999965, -32.425213158999952 ], [ -63.229490376999934, -32.425197430999958 ], [ -63.22999084099996, -32.425315704999946 ], [ -63.230303005999986, -32.425274445999946 ], [ -63.230823207999947, -32.425498004999952 ], [ -63.231287436999935, -32.425303519999943 ], [ -63.231582902999946, -32.425179735999961 ], [ -63.232276688999946, -32.425178457999948 ], [ -63.233525475999954, -32.425302998999939 ], [ -63.233857787999966, -32.425224177999951 ], [ -63.234186462999958, -32.425281282999947 ], [ -63.234440442999983, -32.425325408999981 ], [ -63.234795206999934, -32.425222434999966 ], [ -63.23530571699996, -32.425074251999945 ], [ -63.23571498299998, -32.425159683999937 ], [ -63.235958541999935, -32.424856839999961 ], [ -63.236657857999944, -32.424680357999932 ], [ -63.236855244999958, -32.424485309999966 ], [ -63.237046871999951, -32.424099413999954 ], [ -63.237375393999969, -32.424098794999964 ], [ -63.237483077999968, -32.423871195999936 ], [ -63.237482561999968, -32.423674243999983 ], [ -63.237694266999938, -32.423460010999975 ], [ -63.237830365999969, -32.423190369999929 ], [ -63.238226249999968, -32.422911146999979 ], [ -63.238829550999981, -32.422074291999934 ], [ -63.239267249999955, -32.421603516999937 ], [ -63.239315040999941, -32.421232318999955 ], [ -63.239857356999948, -32.420887739999955 ], [ -63.240514069999961, -32.420886487999951 ], [ -63.240855232999934, -32.42103012299998 ], [ -63.241219938999961, -32.421029425999961 ], [ -63.241446755999959, -32.420967235999967 ], [ -63.242090427999983, -32.421020974999976 ], [ -63.242585187999964, -32.421020022999983 ], [ -63.243023576999974, -32.421273412999938 ], [ -63.243567514999938, -32.421423430999937 ], [ -63.244288601999983, -32.421291598999971 ], [ -63.245767690999969, -32.421522467999978 ], [ -63.246409187999973, -32.421789300999933 ], [ -63.247017136999943, -32.421788110999955 ], [ -63.248116612999979, -32.422172063999938 ], [ -63.24885510699994, -32.422459325999966 ], [ -63.250030925999965, -32.422491338999976 ], [ -63.250783960999968, -32.422573627999952 ], [ -63.252341589999958, -32.422678431999941 ], [ -63.252875425999946, -32.422460963999981 ], [ -63.253468749999968, -32.422089402999973 ], [ -63.253974330999938, -32.421599493999963 ], [ -63.254489174999946, -32.421325001999946 ], [ -63.254548084999954, -32.421102413999961 ], [ -63.254662437999968, -32.420670338999969 ], [ -63.254660940999941, -32.420137404999934 ], [ -63.255320076999965, -32.418357991999983 ], [ -63.255476749999957, -32.417450564999967 ], [ -63.256515068999988, -32.417032425999935 ], [ -63.257614023999963, -32.417025948999935 ], [ -63.258114494999973, -32.416917764999937 ], [ -63.258530101999952, -32.416686149999975 ], [ -63.258914835999974, -32.416685359999974 ], [ -63.259756764999963, -32.416790308999964 ], [ -63.260431619999963, -32.416992295999933 ], [ -63.26094662099996, -32.417272053999966 ], [ -63.261478971999964, -32.417679848999967 ], [ -63.261769643999969, -32.418071600999951 ], [ -63.261890476999952, -32.418548849999979 ], [ -63.262312497999972, -32.419172230999948 ], [ -63.262681549999968, -32.419824672999937 ], [ -63.263494760999947, -32.421511624999937 ], [ -63.264084783999976, -32.423177646999932 ], [ -63.264535244999934, -32.42397552999995 ], [ -63.264991685999973, -32.424534220999931 ], [ -63.265475561999949, -32.424830426999961 ], [ -63.265999831999977, -32.42504553699996 ], [ -63.266492140999958, -32.425113953999983 ], [ -63.267033989999959, -32.425016250999931 ], [ -63.267570700999954, -32.424822143999961 ], [ -63.267843712999934, -32.424659402999964 ], [ -63.268084059999978, -32.424319306999962 ], [ -63.268212558999949, -32.423786481999969 ], [ -63.268259779999937, -32.423042890999966 ], [ -63.268063900999948, -32.422731819999967 ], [ -63.267942545999972, -32.422091132999981 ], [ -63.267821895999987, -32.421791026999983 ], [ -63.267752866999956, -32.421106299999963 ], [ -63.267668242999946, -32.419452629999967 ], [ -63.26766665699995, -32.418915234999929 ], [ -63.268029593999984, -32.418204769999932 ], [ -63.268027773999961, -32.417589214999964 ], [ -63.268419282999957, -32.416906075999975 ], [ -63.268483905999972, -32.416635504999931 ], [ -63.27012547299995, -32.41605425299997 ], [ -63.270568468999954, -32.415970438999977 ], [ -63.27143448299995, -32.416117616999941 ], [ -63.272161671999982, -32.416274501999965 ], [ -63.272689938999974, -32.416519097999981 ], [ -63.273139738999987, -32.41678154799996 ], [ -63.273535371999969, -32.41717775099994 ], [ -63.274555570999951, -32.418076050999957 ], [ -63.27505242899997, -32.418355219999967 ], [ -63.275557059999983, -32.418497737999928 ], [ -63.276119163999965, -32.418496507999976 ], [ -63.277070745999936, -32.418358356999931 ], [ -63.277382582999962, -32.418213051999942 ], [ -63.277689800999951, -32.418044935999944 ], [ -63.278106798999943, -32.417688458999976 ], [ -63.278549733999967, -32.417091032999963 ], [ -63.279173943999979, -32.41609357599998 ], [ -63.279515470999968, -32.415551565999976 ], [ -63.279868946999954, -32.415149726999971 ], [ -63.280305725999938, -32.414726307999956 ], [ -63.280736790999981, -32.414417283999967 ], [ -63.281052379999949, -32.414217336999968 ], [ -63.281865916999948, -32.414062912999952 ], [ -63.282456435999961, -32.414044047999937 ], [ -63.282842148999976, -32.413875173999941 ], [ -63.283325176999938, -32.413899617999959 ], [ -63.283855356999936, -32.413975725999933 ], [ -63.284718044999977, -32.414414625999939 ], [ -63.285162201999981, -32.41470699599995 ], [ -63.285902419999957, -32.415338277999979 ], [ -63.286414854999975, -32.416223369999955 ], [ -63.286478492999947, -32.416693736999946 ], [ -63.286456514999941, -32.417126503999953 ], [ -63.286112925999987, -32.418252432999964 ], [ -63.28594314999998, -32.419023834999962 ], [ -63.286006015999988, -32.419730243999936 ], [ -63.286297636999961, -32.420290800999965 ], [ -63.286876096999947, -32.420760138999981 ], [ -63.28767480099998, -32.420789266999975 ], [ -63.288026884999965, -32.420526749999965 ], [ -63.288208854999937, -32.420543876999943 ], [ -63.288556563999975, -32.420527249999964 ], [ -63.289015214999949, -32.420121578999954 ], [ -63.289215543999944, -32.420096444999956 ], [ -63.289419607999946, -32.419911708999962 ], [ -63.289465741999948, -32.419737032999933 ], [ -63.289633590999983, -32.419510162999984 ], [ -63.289632181999934, -32.419069078999939 ], [ -63.290343930999938, -32.418269281999983 ], [ -63.290806500999963, -32.417579348999936 ], [ -63.291580241999952, -32.41692534799995 ], [ -63.292161907999969, -32.416600104999929 ], [ -63.293055335999952, -32.416586905999964 ], [ -63.293376934999969, -32.416751171999977 ], [ -63.293701384999963, -32.416953081999964 ], [ -63.294109399999968, -32.417119568999965 ], [ -63.294871007999973, -32.417338561999941 ], [ -63.295484537999982, -32.417835168999943 ], [ -63.295930359999943, -32.418342998999947 ], [ -63.296161547999986, -32.418670487999975 ], [ -63.296517186999949, -32.419226876999971 ], [ -63.296682024999939, -32.419753192999963 ], [ -63.296778496999934, -32.420511716999954 ], [ -63.297017212999947, -32.421283453999933 ], [ -63.297349054999984, -32.42169770199996 ], [ -63.297808523999947, -32.422012810999945 ], [ -63.298141422999947, -32.422101447999978 ], [ -63.29859573799996, -32.422139021999953 ], [ -63.298943734999966, -32.422024526999962 ], [ -63.299720998999987, -32.421616919999963 ], [ -63.300382741999954, -32.421210153999937 ], [ -63.300889857999948, -32.420806035999931 ], [ -63.301295184999958, -32.420336980999934 ], [ -63.302516265999941, -32.419404061999956 ], [ -63.303503746999979, -32.418649592999941 ], [ -63.304285328999981, -32.418188178999969 ], [ -63.305171723999933, -32.41743284599994 ], [ -63.305857871999933, -32.416824476999977 ], [ -63.306642098999987, -32.416518917999952 ], [ -63.30767308999998, -32.416304324999942 ], [ -63.308651044999976, -32.416186266999944 ], [ -63.30888811899996, -32.416093836999949 ], [ -63.309472754999945, -32.415699877999941 ], [ -63.310239139999965, -32.415668782999944 ], [ -63.311029443999985, -32.415734580999981 ], [ -63.311511788999951, -32.415820388999975 ], [ -63.312250223999968, -32.416142170999933 ], [ -63.31293143399995, -32.416221204999943 ], [ -63.313666359999957, -32.416578072999982 ], [ -63.314034708999941, -32.416574017999949 ], [ -63.314456735999954, -32.416836673999967 ], [ -63.314723983999954, -32.416878507999968 ], [ -63.314969966999968, -32.417082984999979 ], [ -63.315429626999958, -32.417267956999979 ], [ -63.315667621999978, -32.417267360999972 ], [ -63.315862805999984, -32.417074758999945 ], [ -63.316018465999946, -32.41676345299993 ], [ -63.316244816999983, -32.416119514999934 ], [ -63.316290914999968, -32.415776107999932 ], [ -63.316262449999954, -32.415264307999962 ], [ -63.315890101999969, -32.414467126999966 ], [ -63.315326567999932, -32.413351947999956 ], [ -63.315170021999961, -32.412796967999952 ], [ -63.315168566999944, -32.412378374999946 ], [ -63.315320663999955, -32.412177324999959 ], [ -63.315548874999934, -32.411875658999975 ], [ -63.315969444999951, -32.411483980999947 ], [ -63.316258033999986, -32.411130123999953 ], [ -63.316310302999966, -32.410905361999937 ], [ -63.316152898999974, -32.41053921799994 ], [ -63.315766467999936, -32.409609289999935 ], [ -63.315700529999958, -32.409129957999937 ], [ -63.315727309999943, -32.408462702999941 ], [ -63.316052619999937, -32.407948731999966 ], [ -63.316443969999966, -32.407335613999976 ], [ -63.317317273999947, -32.40679672999994 ], [ -63.31887667899997, -32.40602619699996 ], [ -63.318998908999959, -32.406130287999929 ], [ -63.319567602999939, -32.406128846999934 ], [ -63.320749330999945, -32.405548936999935 ], [ -63.321530668999969, -32.40533187099993 ], [ -63.322291538999934, -32.405242213999941 ], [ -63.323708075999946, -32.405145450999953 ], [ -63.324861187999943, -32.404881341999953 ], [ -63.324242327999968, -32.401701454999966 ], [ -63.323437078999973, -32.401299807999976 ], [ -63.323844298999973, -32.400846741999942 ], [ -63.323864347999972, -32.40068894999996 ], [ -63.323764472999983, -32.400562985999954 ], [ -63.323557579999942, -32.40051787799996 ], [ -63.323156432999951, -32.400571534999983 ], [ -63.321946477999973, -32.400606150999977 ], [ -63.321356167999966, -32.400571145999947 ], [ -63.320651516999988, -32.400356633999934 ], [ -63.320053104999943, -32.399733272999981 ], [ -63.320095032999973, -32.397870656999942 ], [ -63.319993873999977, -32.397464153999977 ], [ -63.319753254999966, -32.397221735999949 ], [ -63.319458675999954, -32.397149316999958 ], [ -63.31916270499994, -32.396939698999972 ], [ -63.319101589999946, -32.396368933999952 ], [ -63.319263546999935, -32.395620752999946 ], [ -63.319474859999957, -32.395308936999982 ], [ -63.317650864999962, -32.394150558999968 ], [ -63.281324882999968, -32.371068998999931 ], [ -63.282025948999944, -32.370275323999977 ], [ -63.246417032999943, -32.347627695999961 ], [ -63.208037790999981, -32.380300448999947 ], [ -63.192806206999933, -32.398901874999979 ] ] ], [ [ [ -63.221919381999953, -32.307042261999982 ], [ -63.227758354999935, -32.330032547999963 ], [ -63.233134635999932, -32.328189700999928 ], [ -63.233153247999951, -32.327288075999945 ], [ -63.230051737999986, -32.328352085999938 ], [ -63.22448753599997, -32.306446156999982 ], [ -63.221919381999953, -32.307042261999982 ] ] ], [ [ [ -63.112991339999951, -32.406802998999979 ], [ -63.122375125999952, -32.409299509999983 ], [ -63.120109083999978, -32.40176287099996 ], [ -63.112991339999951, -32.406802998999979 ] ] ] ] } },
{ "type": "Feature", "properties": { "gid": "1271" }, "geometry": { "type": "Polygon", "coordinates": [ [ [ -64.208967280999957, -31.109036235999952 ], [ -64.191816738999933, -31.108936857999936 ], [ -64.191441980999969, -31.107604372999958 ], [ -64.186680730999967, -31.107973775999938 ], [ -64.187311282999985, -31.11126024899994 ], [ -64.192210047999936, -31.122875299999976 ], [ -64.193668259999981, -31.178802681999969 ], [ -64.203197480999961, -31.178703395999946 ], [ -64.219701780999969, -31.178925373999959 ], [ -64.241744153999946, -31.179137787999935 ], [ -64.242330450999987, -31.17784439299993 ], [ -64.243407278999939, -31.177076964999969 ], [ -64.244614100999968, -31.177151464999952 ], [ -64.245269170999961, -31.17611945699997 ], [ -64.246249555999952, -31.175608719999957 ], [ -64.247283383999957, -31.175752935999981 ], [ -64.248734121999973, -31.176895594999962 ], [ -64.251216181999951, -31.177084826999931 ], [ -64.256431598999939, -31.17716809999996 ], [ -64.260802668999986, -31.175693291999949 ], [ -64.262362294999946, -31.174471532999974 ], [ -64.263183595999976, -31.173749439999938 ], [ -64.264206717999969, -31.173123849999968 ], [ -64.265203147999955, -31.17202427999996 ], [ -64.26665167799996, -31.171074401999931 ], [ -64.26910410499994, -31.17021310299998 ], [ -64.270496281999954, -31.169337601999928 ], [ -64.271639802999971, -31.169153951999931 ], [ -64.27320965399997, -31.16798425199994 ], [ -64.273245587999952, -31.165018120999946 ], [ -64.27403217799997, -31.164137052999934 ], [ -64.275854190999951, -31.163358820999974 ], [ -64.278069787999982, -31.163552049999964 ], [ -64.279241043999946, -31.162500829999942 ], [ -64.280275406999976, -31.161309890999974 ], [ -64.281535939999969, -31.160152686999936 ], [ -64.28263850899998, -31.159099924999964 ], [ -64.283394114999965, -31.158577355999967 ], [ -64.284054724999976, -31.158079145999977 ], [ -64.284737918999951, -31.158247907999964 ], [ -64.285250429999962, -31.158886589999952 ], [ -64.285762630999955, -31.159501861999956 ], [ -64.285569160999955, -31.160299789999954 ], [ -64.285930567999969, -31.160565100999975 ], [ -64.286975613999971, -31.160297144999959 ], [ -64.287952244999985, -31.16000644199994 ], [ -64.288093639999943, -31.159384647999957 ], [ -64.288280042999986, -31.15906672899996 ], [ -64.289108727999974, -31.15891797699993 ], [ -64.289503619999948, -31.158914022999966 ], [ -64.290250464999986, -31.159004832999983 ], [ -64.290521416999979, -31.158606296999949 ], [ -64.292247227999951, -31.15875863399998 ], [ -64.294243125999969, -31.159045327999934 ], [ -64.294985757999939, -31.159467638999956 ], [ -64.295950062999964, -31.159740685999964 ], [ -64.298062985999934, -31.161090451999939 ], [ -64.299124046999964, -31.161701797999967 ], [ -64.301580442999978, -31.163305573999935 ], [ -64.301714280999988, -31.161298964999958 ], [ -64.301628525999945, -31.160517497999933 ], [ -64.307760020999979, -31.158247507999931 ], [ -64.307778719999988, -31.157318433999933 ], [ -64.307725633999951, -31.156507325999939 ], [ -64.30833893099998, -31.156113308999977 ], [ -64.309217147999959, -31.155157460999931 ], [ -64.31015924999997, -31.15427310299998 ], [ -64.311243527999977, -31.15305361399993 ], [ -64.311495270999956, -31.151535975999934 ], [ -64.311790754999947, -31.150910702999965 ], [ -64.311861144999966, -31.149169453999946 ], [ -64.312630275999936, -31.148674627999981 ], [ -64.313433599999939, -31.148037956999929 ], [ -64.311946138999986, -31.146648518999939 ], [ -64.311525391999965, -31.144386391999944 ], [ -64.311021439999934, -31.143648076999966 ], [ -64.310854713999959, -31.142889980999939 ], [ -64.310333254999932, -31.141902146999939 ], [ -64.309903635999945, -31.139848086999962 ], [ -64.310851946999946, -31.139187991999961 ], [ -64.310930675999941, -31.138861403999954 ], [ -64.31099816699998, -31.138581805999934 ], [ -64.311267860999976, -31.13859845099995 ], [ -64.311268656999971, -31.138598592999983 ], [ -64.313519885999938, -31.138737503999948 ], [ -64.313520464999954, -31.138737446999983 ], [ -64.313922996999963, -31.138697729999933 ], [ -64.314398615999949, -31.138549532999946 ], [ -64.314618916999962, -31.138385008999933 ], [ -64.314885229999959, -31.138356666999982 ], [ -64.316195401999948, -31.138217091999934 ], [ -64.316716854999981, -31.138348163999979 ], [ -64.316761027999974, -31.139363396999954 ], [ -64.31674223899995, -31.140374763999944 ], [ -64.320364534999953, -31.141069286999937 ], [ -64.320497470999953, -31.141096259999983 ], [ -64.320786451999936, -31.140986232999978 ], [ -64.320901, -31.140942619999976 ], [ -64.321288553999977, -31.140965649999941 ], [ -64.321289259999958, -31.140965691999952 ], [ -64.321876117999977, -31.140941595999948 ], [ -64.322611188999986, -31.140266724999947 ], [ -64.323343462999958, -31.140150991999974 ], [ -64.324029260999964, -31.140459582999938 ], [ -64.325507908999953, -31.14048044599997 ], [ -64.326992544999939, -31.140176546999953 ], [ -64.328461277999963, -31.138736544999972 ], [ -64.329174045999935, -31.13797165699998 ], [ -64.32941834199994, -31.137446075999947 ], [ -64.32917815899998, -31.13676316599998 ], [ -64.328681062999976, -31.13645265599996 ], [ -64.328311020999934, -31.136231015999954 ], [ -64.328004379999982, -31.136044793999929 ], [ -64.327632205999976, -31.135669863999965 ], [ -64.327555685999982, -31.135445195999978 ], [ -64.327496489999987, -31.134958818999962 ], [ -64.327471881999941, -31.134697542999959 ], [ -64.327475205999974, -31.134183466999957 ], [ -64.327688431999945, -31.133685263999951 ], [ -64.32799978099996, -31.133200088999956 ], [ -64.328877076999959, -31.132464556999935 ], [ -64.329632228999969, -31.131735301999981 ], [ -64.330180367999958, -31.131197564999979 ], [ -64.330542337999987, -31.130842113999961 ], [ -64.331079857999953, -31.130295463999971 ], [ -64.331367690999969, -31.129886666999937 ], [ -64.331548811999937, -31.129343697999957 ], [ -64.331501466999953, -31.128956401999972 ], [ -64.33131685099994, -31.128498377999961 ], [ -64.330804023999974, -31.127809268999954 ], [ -64.330091168999957, -31.127059095999982 ], [ -64.330011128999956, -31.12658195399996 ], [ -64.330687568999963, -31.12547473799998 ], [ -64.331551653999952, -31.124293432999934 ], [ -64.331832665999968, -31.123397717999978 ], [ -64.332401456999946, -31.122841721999976 ], [ -64.332878681999944, -31.122485071999961 ], [ -64.333214856999973, -31.121787185999949 ], [ -64.334466104999933, -31.120556745999977 ], [ -64.335113221999961, -31.120360674999972 ], [ -64.336896022999952, -31.121162850999951 ], [ -64.337949955999932, -31.121566749999943 ], [ -64.337950722999949, -31.12156684699994 ], [ -64.338674447999949, -31.121658410999942 ], [ -64.339364314999955, -31.121506919999945 ], [ -64.340168065999933, -31.120515599999976 ], [ -64.340878932999942, -31.120381959999975 ], [ -64.342038899999977, -31.12012638899995 ], [ -64.34440049799997, -31.121084757999938 ], [ -64.34545649599994, -31.12163286699996 ], [ -64.345588103999944, -31.122046274999946 ], [ -64.344351214999961, -31.122050226999932 ], [ -64.343315263999955, -31.121429813999953 ], [ -64.343296996999982, -31.121628346999955 ], [ -64.344600038999943, -31.122597743999961 ], [ -64.345123592999983, -31.122556205999956 ], [ -64.345675234999987, -31.123019393999982 ], [ -64.345494333999966, -31.123571396999978 ], [ -64.346005076999973, -31.124107156999969 ], [ -64.34600536499994, -31.124107111999933 ], [ -64.346246085999951, -31.124359621999929 ], [ -64.346960026999966, -31.123420713999963 ], [ -64.347459870999955, -31.123199129999932 ], [ -64.347749802999942, -31.122943609999936 ], [ -64.348434364999946, -31.123170908999953 ], [ -64.349200520999943, -31.123235032999958 ], [ -64.349200757999938, -31.123234920999948 ], [ -64.349285706999979, -31.123242030999961 ], [ -64.349392449999982, -31.123449294999944 ], [ -64.349569065999958, -31.123632570999973 ], [ -64.349804975999973, -31.123724704999972 ], [ -64.350458523999976, -31.123979384999984 ], [ -64.350459133999948, -31.123979420999945 ], [ -64.350719239999933, -31.12399457999993 ], [ -64.350720813999942, -31.123994671999981 ], [ -64.351140068999939, -31.123990274999983 ], [ -64.351266356999986, -31.124025023999934 ], [ -64.351698345999978, -31.124246493999976 ], [ -64.351948796999977, -31.124099027999932 ], [ -64.352804550999963, -31.123089018999963 ], [ -64.353342247999933, -31.122560283999974 ], [ -64.354427410999961, -31.122206173999928 ], [ -64.356185215999972, -31.121240799999953 ], [ -64.356989400999964, -31.121033938999972 ], [ -64.357807563999984, -31.121070409999959 ], [ -64.358610313999975, -31.121180780999964 ], [ -64.358685720999972, -31.121191148999969 ], [ -64.359635118999961, -31.121321682999962 ], [ -64.360854780999944, -31.121579351999969 ], [ -64.363383000999988, -31.122445426999946 ], [ -64.363384313999973, -31.122445672999959 ], [ -64.364244301999975, -31.122607534999929 ], [ -64.364244906999943, -31.122607647999928 ], [ -64.367201112999965, -31.122612381999943 ], [ -64.367799702999946, -31.122687191999944 ], [ -64.36892947299998, -31.123252357999945 ], [ -64.369763447999958, -31.123658331999934 ], [ -64.369764053999972, -31.123658382999963 ], [ -64.370330213999978, -31.123706412999979 ], [ -64.370996127999945, -31.123356632999958 ], [ -64.371362972999975, -31.123321797999949 ], [ -64.372566370999948, -31.12327408699997 ], [ -64.374065518999942, -31.123095306999971 ], [ -64.374698622999972, -31.122902489999944 ], [ -64.375785335999979, -31.122867321999934 ], [ -64.376307830999963, -31.122850412999981 ], [ -64.376308178999977, -31.122850299999982 ], [ -64.376723940999966, -31.12283684199997 ], [ -64.377163973999984, -31.122391193999931 ], [ -64.377229239999963, -31.122325094999951 ], [ -64.377922743999932, -31.121713457999931 ], [ -64.378403535999951, -31.121388098999944 ], [ -64.378988794999941, -31.121319942999946 ], [ -64.379621833999977, -31.121323441999948 ], [ -64.379744922999976, -31.121578743999976 ], [ -64.379672056999937, -31.122311520999972 ], [ -64.380734459999985, -31.122621356999957 ], [ -64.381358331999934, -31.122993432999976 ], [ -64.381489984999973, -31.123397839999939 ], [ -64.381383313999947, -31.123994184999958 ], [ -64.381198800999982, -31.125006200999962 ], [ -64.381199030999937, -31.125006463999966 ], [ -64.381387049999944, -31.125220342999967 ], [ -64.381497053999965, -31.125345476999939 ], [ -64.381497243999945, -31.125345691999939 ], [ -64.382223038999939, -31.125509188999956 ], [ -64.382669328999953, -31.12520686299996 ], [ -64.382670021999957, -31.125206576999972 ], [ -64.383388369999977, -31.124910564999936 ], [ -64.383998891999966, -31.125084366999943 ], [ -64.384633884999971, -31.125633541999946 ], [ -64.384688954999945, -31.12568116999995 ], [ -64.384841978999987, -31.125701024999955 ], [ -64.386421928999937, -31.125906021999981 ], [ -64.386887177999938, -31.126180576999957 ], [ -64.387581353999963, -31.127778337999928 ], [ -64.388333165999939, -31.128293291999967 ], [ -64.389958615999944, -31.128329871999938 ], [ -64.390344942999945, -31.128302684999937 ], [ -64.391623755999944, -31.128212692999966 ], [ -64.393445455999938, -31.128048708999984 ], [ -64.39479679599998, -31.12797997499996 ], [ -64.395367583999985, -31.128286445999947 ], [ -64.395504740999968, -31.128360088999955 ], [ -64.39692989699995, -31.129751473999931 ], [ -64.398141123999949, -31.130135131999964 ], [ -64.398958707999952, -31.130126254999936 ], [ -64.400015519999954, -31.129988518999937 ], [ -64.40118648899994, -31.129768343999956 ], [ -64.402289811999935, -31.129233309999961 ], [ -64.402942595999946, -31.128656939999928 ], [ -64.403647648999936, -31.128181433999941 ], [ -64.403647945999978, -31.128181366999968 ], [ -64.404577588999985, -31.127972897999939 ], [ -64.405367296999941, -31.128207773999975 ], [ -64.406152378999934, -31.128839494999966 ], [ -64.406569678999972, -31.129412099999968 ], [ -64.406544915999973, -31.130575710999949 ], [ -64.406815213999948, -31.131131883999956 ], [ -64.40681570199996, -31.131132075999972 ], [ -64.407342660999973, -31.131340188999957 ], [ -64.407437363999975, -31.131377589999943 ], [ -64.408323242999984, -31.131180338999968 ], [ -64.409187842999984, -31.13076031199995 ], [ -64.409451193999985, -31.130638110999939 ], [ -64.41170929599997, -31.129590334999932 ], [ -64.412357951999979, -31.129516561999935 ], [ -64.412801094999963, -31.129466161999972 ], [ -64.412849962999985, -31.129460603999974 ], [ -64.413080635999961, -31.129545273999952 ], [ -64.414209727999946, -31.129959715999973 ], [ -64.415057160999936, -31.130104646999939 ], [ -64.415597068999944, -31.130196983999951 ], [ -64.416438532999962, -31.130284095999968 ], [ -64.417014521999988, -31.130343724999932 ], [ -64.417956061999973, -31.13020708199997 ], [ -64.418300920999968, -31.130157019999956 ], [ -64.418878920999987, -31.129502461999948 ], [ -64.418999008999947, -31.129308452999965 ], [ -64.419452200999956, -31.128576295999949 ], [ -64.42014237799998, -31.12775705599995 ], [ -64.421684421999942, -31.12713591399995 ], [ -64.42338035399996, -31.126990943999942 ], [ -64.423641836999934, -31.126974407999967 ], [ -64.424071586999958, -31.126947231999964 ], [ -64.42500185199998, -31.126738450999937 ], [ -64.425664164999944, -31.126162979999947 ], [ -64.425987022999948, -31.125320719999934 ], [ -64.426274704999969, -31.124432166999952 ], [ -64.427540057999977, -31.120523909999974 ], [ -64.429057745999955, -31.118974001999959 ], [ -64.429324305999955, -31.117176435999966 ], [ -64.426692194999987, -31.11359835199994 ], [ -64.425363818999983, -31.11097975499996 ], [ -64.426714149999952, -31.107357549999961 ], [ -64.42735253799998, -31.104491725999935 ], [ -64.426429208999934, -31.102319554999951 ], [ -64.426643697999964, -31.101244019999967 ], [ -64.428517408999937, -31.098292361999938 ], [ -64.429380619999961, -31.097849919999931 ], [ -64.431803512999977, -31.097985353999945 ], [ -64.432670359999975, -31.097786338999981 ], [ -64.434217739999951, -31.09754367599993 ], [ -64.435257415999956, -31.096991012999979 ], [ -64.435770840999965, -31.096985294999968 ], [ -64.438350454999977, -31.087848428999962 ], [ -64.439674052999976, -31.064220207999938 ], [ -64.403866608999977, -31.07664038799993 ], [ -64.386415214999943, -31.082725978999974 ], [ -64.380965264999986, -31.083237382999982 ], [ -64.355676697999968, -31.085738091999929 ], [ -64.357314703999975, -31.095372721999979 ], [ -64.353338409999935, -31.096297057999948 ], [ -64.350034115999961, -31.097369896999965 ], [ -64.348578996999947, -31.097290749999956 ], [ -64.344808527999987, -31.095467428999939 ], [ -64.343722172999946, -31.094298997999942 ], [ -64.343547637999961, -31.093592960999956 ], [ -64.344024444999945, -31.092450364999934 ], [ -64.34286674699996, -31.086578557999928 ], [ -64.342629571999964, -31.086851577999937 ], [ -64.342315630999963, -31.086881902999949 ], [ -64.342145204999952, -31.086685273999933 ], [ -64.341790402999948, -31.086183920999929 ], [ -64.341054893999967, -31.085903006999956 ], [ -64.34067945399994, -31.08528464699998 ], [ -64.340574887999935, -31.084743295999942 ], [ -64.339554154999973, -31.085455316999969 ], [ -64.339334959999974, -31.086722002999977 ], [ -64.340107541999942, -31.086983570999962 ], [ -64.340412069999957, -31.087884707999933 ], [ -64.340110627999934, -31.088059189999967 ], [ -64.339308413999959, -31.088094617999957 ], [ -64.338266977999979, -31.088853918999973 ], [ -64.338120670999956, -31.088882492999971 ], [ -64.337972088999948, -31.08874875999993 ], [ -64.338046239999983, -31.088420415999963 ], [ -64.337639451999962, -31.088193075999982 ], [ -64.337387649999982, -31.08761489099993 ], [ -64.33682106699996, -31.087371877999942 ], [ -64.336186236999936, -31.086936560999959 ], [ -64.335306008999964, -31.08693666299996 ], [ -64.334707821999984, -31.087440579999964 ], [ -64.334494173999985, -31.088081379999949 ], [ -64.334339026999942, -31.088227279999955 ], [ -64.334202818999984, -31.088228689999937 ], [ -64.334043135999934, -31.088049974999933 ], [ -64.333876051999937, -31.087352119999935 ], [ -64.333110033999958, -31.087266013999965 ], [ -64.333062584999936, -31.086869696999941 ], [ -64.332481923999978, -31.086560057999975 ], [ -64.332343164999941, -31.08600996399997 ], [ -64.331590843999948, -31.086533191999933 ], [ -64.331411470999967, -31.086444860999961 ], [ -64.331854740999972, -31.085168694999936 ], [ -64.332501811999975, -31.084981640999956 ], [ -64.332242685999972, -31.084434199999976 ], [ -64.331945291999943, -31.083049195999934 ], [ -64.33219328499996, -31.083070413999963 ], [ -64.332384154999943, -31.082515437999973 ], [ -64.328627842999936, -31.082495843999936 ], [ -64.326557552999986, -31.085737661999929 ], [ -64.324519013999975, -31.087687061999929 ], [ -64.328383503999987, -31.093493029999934 ], [ -64.327556888999936, -31.099312420999979 ], [ -64.325905330999944, -31.102839606999964 ], [ -64.323610544999951, -31.104959556999972 ], [ -64.323981900999968, -31.112407125999937 ], [ -64.312127803999942, -31.110336041999972 ], [ -64.312345797999967, -31.104954772999974 ], [ -64.298806037999952, -31.105112745999975 ], [ -64.29887740199996, -31.089699778999943 ], [ -64.294092475999946, -31.092452556999945 ], [ -64.291681193999977, -31.094138441999974 ], [ -64.289917844999934, -31.09437147899996 ], [ -64.290100149999944, -31.095765659999984 ], [ -64.286432110999954, -31.096310590999963 ], [ -64.286966046999964, -31.097785870999928 ], [ -64.285043672999961, -31.098180728999978 ], [ -64.281204996999975, -31.097511785999984 ], [ -64.279229033999968, -31.098459405999961 ], [ -64.278201127999978, -31.099151875999951 ], [ -64.27791181799995, -31.099916423999957 ], [ -64.275532638999948, -31.10011673899993 ], [ -64.274108005999949, -31.09980743899996 ], [ -64.272204916999954, -31.099624990999928 ], [ -64.271470483999963, -31.09922765999994 ], [ -64.269831799999963, -31.099810223999953 ], [ -64.268549619999987, -31.100351288999946 ], [ -64.266940440999974, -31.100910898999928 ], [ -64.265782711999975, -31.101010230999975 ], [ -64.264711523999949, -31.100912492999953 ], [ -64.262896714999954, -31.101888775999953 ], [ -64.261783131999948, -31.102749917999972 ], [ -64.260666041999968, -31.103347217999954 ], [ -64.259272378999981, -31.103654028999983 ], [ -64.258017754999969, -31.104164694999952 ], [ -64.256391638999958, -31.10532785099997 ], [ -64.254509058999986, -31.106610160999935 ], [ -64.254544879999969, -31.106886520999979 ], [ -64.254352875999984, -31.106971401999942 ], [ -64.208967280999957, -31.109036235999952 ] ] ] } },
{ "type": "Feature", "properties": { "gid": "1300" }, "geometry": { "type": "Polygon", "coordinates": [ [ [ -64.32070170999998, -33.090053471999965 ], [ -64.320703874999936, -33.09244728799996 ], [ -64.311165244999984, -33.09236197499996 ], [ -64.311071570999957, -33.12211462199997 ], [ -64.302255801999934, -33.122110094999982 ], [ -64.299774046999971, -33.119022979999954 ], [ -64.296742413999937, -33.115827399999944 ], [ -64.296296438999946, -33.115357280999945 ], [ -64.293429012999979, -33.113998996999953 ], [ -64.290684860999988, -33.114197101999935 ], [ -64.288443619999953, -33.115498257999946 ], [ -64.28801842699994, -33.118529469999942 ], [ -64.288089507999985, -33.123397956999952 ], [ -64.284072159999937, -33.123969986999953 ], [ -64.27983723899996, -33.125417052999978 ], [ -64.278530700999966, -33.127395348999983 ], [ -64.280743965999932, -33.130390116999934 ], [ -64.283400858999983, -33.133017079999945 ], [ -64.284889991999933, -33.135636949999935 ], [ -64.285911432999967, -33.138064094999947 ], [ -64.283501240999954, -33.140091712999947 ], [ -64.282177880999939, -33.141429742999946 ], [ -64.280052340999987, -33.14357873199998 ], [ -64.27949005399995, -33.143716027999972 ], [ -64.277786785999979, -33.144131904999938 ], [ -64.277007914999956, -33.144322067999951 ], [ -64.274443335999933, -33.14583091399993 ], [ -64.272595387999957, -33.148123097999928 ], [ -64.272507087999941, -33.15015018899993 ], [ -64.273023925999951, -33.153283889999955 ], [ -64.274358291999988, -33.155160348999971 ], [ -64.274231314999952, -33.157227577999947 ], [ -64.270072395999932, -33.158318838999946 ], [ -64.266660524999963, -33.158915824999951 ], [ -64.265421454999966, -33.158919812999955 ], [ -64.265786850999973, -33.206698863999975 ], [ -64.265491106999946, -33.208504988999948 ], [ -64.26572342999998, -33.22464049599995 ], [ -64.293506767999986, -33.224715319999973 ], [ -64.293526244999953, -33.211462290999975 ], [ -64.312318195999978, -33.220190851999973 ], [ -64.349308453999981, -33.218618201999959 ], [ -64.349209147999943, -33.204964853999968 ], [ -64.356413677999967, -33.200064200999975 ], [ -64.386847694999972, -33.198737046999952 ], [ -64.382588630999976, -33.168135767999956 ], [ -64.382375205999949, -33.166601671999956 ], [ -64.384198614999946, -33.16667156699998 ], [ -64.406984889999933, -33.183906054999966 ], [ -64.407584167999971, -33.154328686999975 ], [ -64.422535461999985, -33.151971702999958 ], [ -64.422298715999943, -33.150724910999941 ], [ -64.421917899999983, -33.15028857599998 ], [ -64.42216988399997, -33.149423988999956 ], [ -64.421217863999971, -33.148433013999977 ], [ -64.420963566999944, -33.147524006999959 ], [ -64.420407380999961, -33.146899753999946 ], [ -64.420521004999955, -33.146122927999954 ], [ -64.420314185999985, -33.145371601999955 ], [ -64.420352917999935, -33.14484110199993 ], [ -64.420981683999969, -33.143639431999929 ], [ -64.421252426999956, -33.143455136999933 ], [ -64.421623453999985, -33.143009262999954 ], [ -64.421817604999944, -33.142453529999955 ], [ -64.422276710999938, -33.141824106999934 ], [ -64.422313277999933, -33.141214444999946 ], [ -64.422677707999981, -33.140756245999967 ], [ -64.423062366999943, -33.140454123999973 ], [ -64.423458223999944, -33.13973774699997 ], [ -64.424462409999933, -33.138889257999949 ], [ -64.424445413999933, -33.137247405999972 ], [ -64.425604545999988, -33.135956386999965 ], [ -64.426091571999962, -33.134032764999972 ], [ -64.426823661999947, -33.133314551999945 ], [ -64.427247728999987, -33.132194241999969 ], [ -64.426505131999988, -33.131019693999974 ], [ -64.427299321999953, -33.129649950999976 ], [ -64.427405028999942, -33.128244565999978 ], [ -64.428736034999986, -33.127149172999964 ], [ -64.430113565999932, -33.126944339999966 ], [ -64.430512587999942, -33.126672089999943 ], [ -64.429958921999969, -33.125952599999948 ], [ -64.430534514999977, -33.12567155499994 ], [ -64.431061743999976, -33.125892338999961 ], [ -64.431575484999939, -33.126260054999932 ], [ -64.432062102999964, -33.12593421899993 ], [ -64.432303376999982, -33.125157523999974 ], [ -64.431875053999988, -33.124048821999963 ], [ -64.432239637999942, -33.123429549999969 ], [ -64.432255289999944, -33.122639701999958 ], [ -64.433263142999976, -33.122443567999937 ], [ -64.433395250999979, -33.12192775799997 ], [ -64.432079977999933, -33.120878094999966 ], [ -64.431783305999943, -33.119609426999943 ], [ -64.432084906999933, -33.119190998999954 ], [ -64.432520608999937, -33.11834866099997 ], [ -64.432769226999937, -33.117923429999962 ], [ -64.433266371999935, -33.117550490999974 ], [ -64.433677164999949, -33.117241133999983 ], [ -64.433877328999984, -33.11702147099993 ], [ -64.434318509999969, -33.116457105999984 ], [ -64.434657733999984, -33.115992543999937 ], [ -64.435843713999986, -33.114378238999961 ], [ -64.437841077999963, -33.114429832999974 ], [ -64.438269930999979, -33.114201002999948 ], [ -64.438735987999962, -33.113533307999944 ], [ -64.439483405999965, -33.113795194999966 ], [ -64.440132798999969, -33.113487710999948 ], [ -64.439205081999944, -33.112931454999966 ], [ -64.439160948999984, -33.112541944999975 ], [ -64.439971343999957, -33.112351622999938 ], [ -64.440912551999986, -33.112931408999941 ], [ -64.441762281999956, -33.113497931999973 ], [ -64.442344697999943, -33.113510328999951 ], [ -64.443088847999945, -33.113386184999968 ], [ -64.443664579999961, -33.113129785999945 ], [ -64.443695501999969, -33.108026774999928 ], [ -64.430197670999974, -33.108002114999977 ], [ -64.430152894999935, -33.098626531999969 ], [ -64.430571036999936, -33.097990648999939 ], [ -64.433053095999981, -33.026468983999962 ], [ -64.439986335999947, -33.018455453999934 ], [ -64.439355274999969, -32.97960547699995 ], [ -64.417458349999947, -33.015016989999936 ], [ -64.410272737999946, -33.014016526999967 ], [ -64.410257756999954, -33.00635340599996 ], [ -64.402234196999984, -33.006443809999951 ], [ -64.402209958999947, -33.01167315999993 ], [ -64.398033178999981, -33.011449550999941 ], [ -64.398034601999939, -33.011539690999939 ], [ -64.352981342999954, -33.011315006999951 ], [ -64.341223418999959, -33.012163183999974 ], [ -64.341166398999974, -33.022531889999982 ], [ -64.336993269999937, -33.022576674999982 ], [ -64.336914845999956, -33.02447081899993 ], [ -64.320825526999954, -33.024229737999974 ], [ -64.32070170999998, -33.090053471999965 ] ] ] } },
{ "type": "Feature", "properties": { "gid": "1385" }, "geometry": { "type": "Polygon", "coordinates": [ [ [ -64.285464167999976, -31.308553282999981 ], [ -64.284891165999966, -31.30870183899998 ], [ -64.28483923999994, -31.308553767999967 ], [ -64.284831491999967, -31.308531672999948 ], [ -64.284829890999958, -31.308527106999975 ], [ -64.284603427999969, -31.307863617999942 ], [ -64.282759734999956, -31.308325225999965 ], [ -64.281960384999934, -31.308525351999947 ], [ -64.281936335999944, -31.308531627999969 ], [ -64.281842756999936, -31.308556049999936 ], [ -64.280970699999955, -31.308783631999972 ], [ -64.28055715499994, -31.30855700799998 ], [ -64.280510801999981, -31.308531605999974 ], [ -64.280310021999981, -31.308421576999933 ], [ -64.280278374999966, -31.308368608999956 ], [ -64.28026364599998, -31.308343957999966 ], [ -64.280246726999962, -31.308315639999933 ], [ -64.280091017999951, -31.308531599999981 ], [ -64.280072440999959, -31.308557364999956 ], [ -64.279430324999964, -31.309447932999944 ], [ -64.278426430999957, -31.308893703999956 ], [ -64.277797369999973, -31.308559019999961 ], [ -64.277745764999963, -31.308531563999964 ], [ -64.27752062999997, -31.308411781999951 ], [ -64.277422635999983, -31.308358272999953 ], [ -64.276608983999949, -31.307913978999977 ], [ -64.275800060999984, -31.307472256999972 ], [ -64.275579974999971, -31.307762108999952 ], [ -64.274999114999957, -31.308527089999984 ], [ -64.274995750999949, -31.308531520999964 ], [ -64.27497335299995, -31.308561017999978 ], [ -64.274899135999988, -31.308658758999968 ], [ -64.274698895999961, -31.308561208999947 ], [ -64.274637944999938, -31.30853151499997 ], [ -64.274629230999949, -31.308527269999956 ], [ -64.27444608899998, -31.30852645899995 ], [ -64.273923773999968, -31.308236871999952 ], [ -64.258964092999975, -31.308329828999945 ], [ -64.247737430999962, -31.308405468999979 ], [ -64.240529415999958, -31.30837186399998 ], [ -64.239400348999936, -31.308367336999936 ], [ -64.238249477999943, -31.308369094999932 ], [ -64.237135712999986, -31.308367869999984 ], [ -64.236022824999964, -31.308363950999933 ], [ -64.234915979999982, -31.308364427999948 ], [ -64.233934996999949, -31.308364275999963 ], [ -64.233808815999964, -31.308364255999948 ], [ -64.233806405999985, -31.308497963999969 ], [ -64.231028398999968, -31.308516209999937 ], [ -64.229369818999942, -31.30852710399995 ], [ -64.228404377999937, -31.308527062999929 ], [ -64.227328735999947, -31.308527008999931 ], [ -64.226253093999958, -31.308526945999972 ], [ -64.225177451999969, -31.308526873999938 ], [ -64.224101808999933, -31.308526792999942 ], [ -64.223026165999954, -31.308526702999984 ], [ -64.221950521999986, -31.308526603999951 ], [ -64.220725698999956, -31.308521068999937 ], [ -64.220697868999935, -31.308520055999963 ], [ -64.220431039999937, -31.30851034799997 ], [ -64.219877766999957, -31.308512725999947 ], [ -64.219406536999941, -31.308514749999972 ], [ -64.218353708999985, -31.308515267999951 ], [ -64.217300878999936, -31.308515776999968 ], [ -64.216248049999933, -31.308516276999967 ], [ -64.215195219999941, -31.308516768999937 ], [ -64.21414238999995, -31.308517251999945 ], [ -64.213089559999958, -31.308517725999934 ], [ -64.212036728999976, -31.308518191999951 ], [ -64.210983897999938, -31.30851864899995 ], [ -64.209931065999967, -31.30851909699993 ], [ -64.208878234999986, -31.308519536999938 ], [ -64.207825402999958, -31.308519967999928 ], [ -64.206772569999941, -31.308520390999945 ], [ -64.205719737999971, -31.308520804999944 ], [ -64.204666904999954, -31.308521209999981 ], [ -64.203614071999937, -31.308521606999932 ], [ -64.202561237999987, -31.308521994999978 ], [ -64.201508403999981, -31.308522373999949 ], [ -64.200455569999974, -31.308522744999948 ], [ -64.199402735999968, -31.308523106999928 ], [ -64.198349900999972, -31.308523460999936 ], [ -64.197297065999976, -31.308523804999936 ], [ -64.197162915999968, -31.308523847999936 ], [ -64.19624423099998, -31.308524141999953 ], [ -64.195191394999938, -31.308524468999963 ], [ -64.194138558999953, -31.308524787999943 ], [ -64.193085722999967, -31.308525098999951 ], [ -64.192032885999936, -31.308525399999951 ], [ -64.190980048999961, -31.308525692999979 ], [ -64.189927211999986, -31.308525977999977 ], [ -64.188874374999955, -31.308526252999968 ], [ -64.187821536999934, -31.308526520999976 ], [ -64.18676869899997, -31.308526778999976 ], [ -64.185715859999959, -31.308527028999947 ], [ -64.184663021999938, -31.308527269999956 ], [ -64.184644920999972, -31.308530124999947 ], [ -64.184270502999937, -31.308589191999943 ], [ -64.177961480999954, -31.308589076999965 ], [ -64.177884752999944, -31.308530020999967 ], [ -64.177711959999954, -31.308397025999966 ], [ -64.17754578499995, -31.308530015999963 ], [ -64.177472012999942, -31.30858905499997 ], [ -64.17678604699995, -31.308589020999932 ], [ -64.176785394999968, -31.30865486099998 ], [ -64.176689455999963, -31.308665431999941 ], [ -64.176583732999973, -31.30867230299998 ], [ -64.176560558999938, -31.308675669999957 ], [ -64.176447519999954, -31.308692090999955 ], [ -64.175725203999946, -31.30877167999995 ], [ -64.175699910999981, -31.308591770999953 ], [ -64.17569122499998, -31.308529986999929 ], [ -64.175690713999984, -31.30852634699994 ], [ -64.175641730999985, -31.30832479399993 ], [ -64.175323065999976, -31.308454197999936 ], [ -64.175004920999982, -31.308475666999982 ], [ -64.174568232999945, -31.308281362999935 ], [ -64.174509118999936, -31.308228208999935 ], [ -64.173304637999934, -31.307775239999955 ], [ -64.17290367399994, -31.30760326799998 ], [ -64.172769593999988, -31.307758909999961 ], [ -64.172575774999984, -31.307911046999948 ], [ -64.172380233999945, -31.307954897999934 ], [ -64.172370982999951, -31.307956972999932 ], [ -64.172305716999972, -31.308030856999949 ], [ -64.171716629999935, -31.308117486999947 ], [ -64.171190495999952, -31.308177409999928 ], [ -64.171090102999983, -31.308204366999973 ], [ -64.17104900399994, -31.308228415999963 ], [ -64.171033085999966, -31.308244671999944 ], [ -64.171013409999944, -31.308271483999931 ], [ -64.171009563999974, -31.308295192999935 ], [ -64.171009967999964, -31.308298268999977 ], [ -64.171013371999948, -31.308324159999984 ], [ -64.171018536999952, -31.308351337999966 ], [ -64.171055154999976, -31.308529914999951 ], [ -64.171063318999984, -31.308569726999963 ], [ -64.171063382999932, -31.308574900999929 ], [ -64.171063551999964, -31.308588575999977 ], [ -64.170544607999943, -31.308588525999937 ], [ -64.170523334999984, -31.308580710999934 ], [ -64.170470504999969, -31.308564971999942 ], [ -64.170411877999982, -31.308552680999981 ], [ -64.170351484999969, -31.308547116999932 ], [ -64.170050678999985, -31.308542919999979 ], [ -64.169450255999948, -31.308537030999958 ], [ -64.169041017999973, -31.308539816999939 ], [ -64.169002701999943, -31.308552602999953 ], [ -64.168704181999942, -31.308529878999934 ], [ -64.168665303999944, -31.308526919999963 ], [ -64.168644961999973, -31.308529877999945 ], [ -64.168243375999964, -31.308588275999966 ], [ -64.164441465999971, -31.308587772999942 ], [ -64.164427086999979, -31.30852981299995 ], [ -64.164211096999964, -31.307659171999944 ], [ -64.164203791999967, -31.307626985999946 ], [ -64.164202602999978, -31.307625800999972 ], [ -64.164187033999951, -31.307610291999936 ], [ -64.164186644999972, -31.307609903999946 ], [ -64.164166060999946, -31.30760057599997 ], [ -64.147331614999985, -31.308524721999959 ], [ -64.147304318999943, -31.30852621799994 ], [ -64.146848788999932, -31.308526262999976 ], [ -64.13599321199996, -31.308526858999983 ], [ -64.13596806299995, -31.308526859999972 ], [ -64.135944561999963, -31.308526861999951 ], [ -64.128236577999985, -31.308527367999943 ], [ -64.128086809999957, -31.308527372999947 ], [ -64.120529878999946, -31.308527411999933 ], [ -64.116852280999979, -31.308527271999935 ], [ -64.112254145999941, -31.308527155999968 ], [ -64.107883928999968, -31.308527567999931 ], [ -64.107861582999988, -31.308527760999937 ], [ -64.105366523999976, -31.308527267999978 ], [ -64.104106644999945, -31.308527248999951 ], [ -64.101280150999969, -31.308527159999983 ], [ -64.101128101999961, -31.308527415999947 ], [ -64.10029349399997, -31.308528822999961 ], [ -64.095077501999981, -31.308537612999942 ], [ -64.09100194399997, -31.308528678999949 ], [ -64.091001906999963, -31.308528678999949 ], [ -64.090306160999944, -31.308527153999933 ], [ -64.084902934999946, -31.308527272999982 ], [ -64.079332171999965, -31.308527157999947 ], [ -64.07748436199995, -31.308527222999942 ], [ -64.068358183999976, -31.308527152999943 ], [ -64.057384187999958, -31.308528157999945 ], [ -64.057384186999968, -31.315691485999935 ], [ -64.057384186999968, -31.316364894999936 ], [ -64.057384186999968, -31.317938319999939 ], [ -64.057384184999933, -31.324567209999941 ], [ -64.057384184999933, -31.324574408999979 ], [ -64.057384179999985, -31.327349481999931 ], [ -64.057384192999962, -31.336760646999949 ], [ -64.057384174999981, -31.346171811999966 ], [ -64.057384183999943, -31.351931841999942 ], [ -64.057384490999937, -31.351969206999968 ], [ -64.057479850999982, -31.363571092999962 ], [ -64.057502101999944, -31.366278209999962 ], [ -64.057502324999973, -31.366305322999949 ], [ -64.057502338999939, -31.366310263999935 ], [ -64.057506503999946, -31.367733722999958 ], [ -64.057504280999979, -31.369292159999929 ], [ -64.057504119999976, -31.36937299799996 ], [ -64.057503959999963, -31.369453835999934 ], [ -64.057503489999988, -31.369690463999973 ], [ -64.057503557999951, -31.369690831999947 ], [ -64.057576243999961, -31.370086671999957 ], [ -64.05774179499997, -31.370788636999976 ], [ -64.057745467999951, -31.370804207999981 ], [ -64.057881161999944, -31.371127575999935 ], [ -64.057879610999976, -31.371128915999975 ], [ -64.057739768999966, -31.371249776999946 ], [ -64.057594158999962, -31.371382565999966 ], [ -64.057575448999955, -31.371680727999944 ], [ -64.057561544999942, -31.372986452999953 ], [ -64.057561316999966, -31.373135574999935 ], [ -64.05756116699996, -31.37323332099993 ], [ -64.057560468999952, -31.373688784999956 ], [ -64.057545276999974, -31.374282974999971 ], [ -64.057540272999972, -31.374478699999941 ], [ -64.057539906999978, -31.375244203999955 ], [ -64.057539901999974, -31.375256234999938 ], [ -64.057539763999955, -31.376009176999958 ], [ -64.057539991999988, -31.376035199999933 ], [ -64.057547083999964, -31.376845589999959 ], [ -64.057546608999985, -31.377660547999938 ], [ -64.057545791999985, -31.37770894099998 ], [ -64.057545625999978, -31.377718782999978 ], [ -64.05753395399995, -31.378410243999951 ], [ -64.057534018999945, -31.378414996999936 ], [ -64.057546271999968, -31.379309301999967 ], [ -64.057546265999974, -31.379309822999971 ], [ -64.057537819999936, -31.380074548999971 ], [ -64.057543450999958, -31.380902663999962 ], [ -64.057526434999943, -31.381868139999938 ], [ -64.057526530999951, -31.381871155999931 ], [ -64.057559121999986, -31.382894483999962 ], [ -64.057567913999947, -31.383237856999983 ], [ -64.057568592999985, -31.383264365999935 ], [ -64.057568553999943, -31.383265759999972 ], [ -64.05754641599998, -31.384061075999966 ], [ -64.057544367999981, -31.384986475999938 ], [ -64.057547187999944, -31.385988262999945 ], [ -64.057537640999954, -31.387039989999948 ], [ -64.05753772099996, -31.387042733999976 ], [ -64.057541965999974, -31.387188254999955 ], [ -64.057541972999957, -31.387191673999951 ], [ -64.057545068999957, -31.388746889999936 ], [ -64.057545124999933, -31.388750847999972 ], [ -64.057551931999967, -31.389235628999984 ], [ -64.05755893099996, -31.389733995999961 ], [ -64.057558925999956, -31.389734656999963 ], [ -64.05754654499998, -31.391255997999963 ], [ -64.057546527999932, -31.391263236999976 ], [ -64.057544035999967, -31.392339436999976 ], [ -64.057544092999933, -31.392344610999942 ], [ -64.057554157999959, -31.393295051999928 ], [ -64.057558013999937, -31.394352315999981 ], [ -64.05755331599994, -31.395334993999938 ], [ -64.057553370999983, -31.395340167999962 ], [ -64.057564233999983, -31.396409607999942 ], [ -64.05757043899996, -31.397359434999942 ], [ -64.057576806999975, -31.398987629999965 ], [ -64.057576445999985, -31.400591070999951 ], [ -64.057590465999965, -31.402254514999981 ], [ -64.057590970999968, -31.40231446599995 ], [ -64.057387780999932, -31.402381738999964 ], [ -64.057381490999944, -31.402531927999974 ], [ -64.057344919999935, -31.403405077999935 ], [ -64.057336726999949, -31.404210066999951 ], [ -64.057340513999975, -31.40497942199994 ], [ -64.057342993999953, -31.406243124999946 ], [ -64.057338984999944, -31.406850320999979 ], [ -64.057339054999943, -31.406853626999975 ], [ -64.057367122999949, -31.40817291299993 ], [ -64.057367089999957, -31.408173794999982 ], [ -64.057333312999958, -31.409067577999963 ], [ -64.057333459999938, -31.409070397999983 ], [ -64.057381427999985, -31.409991058999935 ], [ -64.057385332999957, -31.410066005999965 ], [ -64.057385213999964, -31.410067783999978 ], [ -64.057381426999939, -31.410124384999961 ], [ -64.057328283999937, -31.410918704999972 ], [ -64.057322856999974, -31.411483763999968 ], [ -64.057318510999949, -31.411708233999946 ], [ -64.057318648999967, -31.411709256999984 ], [ -64.057358198999964, -31.41200170999997 ], [ -64.057358004999969, -31.412005018999935 ], [ -64.057319199999938, -31.412665981999965 ], [ -64.057293400999981, -31.412908897999955 ], [ -64.057293565999942, -31.412913066999977 ], [ -64.057307209999976, -31.413258310999936 ], [ -64.057307132999938, -31.413260062999939 ], [ -64.057297871999936, -31.413470014999973 ], [ -64.057298662999983, -31.413709746999984 ], [ -64.057299142999966, -31.413849098999947 ], [ -64.057369143999949, -31.413859724999952 ], [ -64.057381395999982, -31.413866811999981 ], [ -64.057472451999956, -31.413919480999937 ], [ -64.057572564999987, -31.413967535999973 ], [ -64.057572297999968, -31.41397255399994 ], [ -64.057525092999981, -31.414861261999931 ], [ -64.057496912999966, -31.415781695999954 ], [ -64.057468732999951, -31.416702129999976 ], [ -64.057440551999946, -31.417622563999942 ], [ -64.057412370999941, -31.418542997999964 ], [ -64.057404145999953, -31.418811661999939 ], [ -64.057404472999963, -31.419441667999934 ], [ -64.057404729999973, -31.41993580999997 ], [ -64.057404814999984, -31.420099741999934 ], [ -64.057381370999963, -31.42009756799996 ], [ -64.057369128999937, -31.42009643199998 ], [ -64.057333336999932, -31.420094130999928 ], [ -64.057297472999949, -31.420092875999956 ], [ -64.057261579999988, -31.420092656999941 ], [ -64.057243867999944, -31.420093060999932 ], [ -64.057225699999947, -31.420093474999931 ], [ -64.057189870999935, -31.420095327999945 ], [ -64.057154135999951, -31.420098214999939 ], [ -64.057118533999983, -31.420102131999954 ], [ -64.057083105999936, -31.42010707399993 ], [ -64.057047891999957, -31.420113036999965 ], [ -64.057012932999953, -31.420120012999973 ], [ -64.056978266999977, -31.420127993999984 ], [ -64.056943933999946, -31.420136971999966 ], [ -64.056909972999961, -31.420146935999981 ], [ -64.056876422999949, -31.420157874999973 ], [ -64.056843320999974, -31.420169775999966 ], [ -64.056809489999978, -31.420183126999973 ], [ -64.056776223999975, -31.420197482999981 ], [ -64.056743563999987, -31.420212826999943 ], [ -64.056711547999953, -31.420229140999936 ], [ -64.056680215999961, -31.420246402999965 ], [ -64.05664960699994, -31.420264592999956 ], [ -64.056619756999964, -31.420283688999973 ], [ -64.056590702999983, -31.420303667999974 ], [ -64.056562480999958, -31.42032450399995 ], [ -64.056535124999982, -31.420346173999974 ], [ -64.056508667999935, -31.420368648999954 ], [ -64.05648314299998, -31.420391903999928 ], [ -64.056458580999958, -31.420415908999928 ], [ -64.056435010999962, -31.420440634999977 ], [ -64.056412462999958, -31.420466051999938 ], [ -64.056390963999945, -31.420492128999967 ], [ -64.056370540999978, -31.420518833999949 ], [ -64.056351217999975, -31.420546134999938 ], [ -64.056333018999965, -31.420573996999963 ], [ -64.056315964999953, -31.420602387999963 ], [ -64.056300087999944, -31.420631275999938 ], [ -64.056285382999988, -31.420660616999953 ], [ -64.056271882999965, -31.420690380999929 ], [ -64.056261670999959, -31.420713155999977 ], [ -64.05620823199996, -31.420832329999939 ], [ -64.056138754999949, -31.42097225599997 ], [ -64.056063539999968, -31.421109982999951 ], [ -64.056064943999957, -31.421112692999941 ], [ -64.056806094999956, -31.422543441999949 ], [ -64.057381506999945, -31.425231770999972 ], [ -64.057438011999977, -31.425495760999979 ], [ -64.057438028999968, -31.440217508999979 ], [ -64.057394424999984, -31.442233441999974 ], [ -64.057441773999983, -31.442679875999943 ], [ -64.05738196599998, -31.442650196999978 ], [ -64.057039920999955, -31.442480460999946 ], [ -64.057200568999974, -31.456495638999968 ], [ -64.057206672999939, -31.45675449099997 ], [ -64.057215300999985, -31.457120288999931 ], [ -64.057224702999974, -31.457518954999955 ], [ -64.057236487999944, -31.458018631999948 ], [ -64.057382531999963, -31.464210094999942 ], [ -64.057401137999932, -31.46499881699998 ], [ -64.057517302999941, -31.471438311999975 ], [ -64.058164362999946, -31.50727778299995 ], [ -64.058191857999986, -31.508535503999951 ], [ -64.057383719999962, -31.509321473999933 ], [ -64.057380143999978, -31.509324952999975 ], [ -64.057383726999944, -31.509546271999966 ], [ -64.057384881999951, -31.509617632999948 ], [ -64.057384185999979, -31.517670471999963 ], [ -64.057384168999988, -31.524983908999957 ], [ -64.065433626999948, -31.524983910999936 ], [ -64.068358185999955, -31.524983911999982 ], [ -64.068625957999984, -31.52498393299993 ], [ -64.075133630999972, -31.524984678999942 ], [ -64.076697167999953, -31.524984857999982 ], [ -64.076697165999974, -31.524983931999941 ], [ -64.076694659999987, -31.523992825999983 ], [ -64.087350661999949, -31.523927447999938 ], [ -64.091700647999971, -31.523962561999952 ], [ -64.095793644999958, -31.524016271999983 ], [ -64.09984150799994, -31.524059278999971 ], [ -64.10089858799995, -31.524060562999978 ], [ -64.101961253999946, -31.524066610999967 ], [ -64.102851452999971, -31.524117290999982 ], [ -64.104008883999938, -31.524107305999962 ], [ -64.108116672999984, -31.524439669999936 ], [ -64.114827934999937, -31.524458526999979 ], [ -64.12784559499994, -31.524443790999953 ], [ -64.136421044999963, -31.524497980999968 ], [ -64.14740341299995, -31.52449588199994 ], [ -64.147405137999954, -31.524953453999956 ], [ -64.153690439999934, -31.52495483499996 ], [ -64.168461321999985, -31.524956590999977 ], [ -64.168632171999946, -31.524956601999975 ], [ -64.175594616999945, -31.524983921999933 ], [ -64.178782101999957, -31.524996428999941 ], [ -64.181614678999949, -31.525007543999948 ], [ -64.181753824999987, -31.525008082999932 ], [ -64.18178048599998, -31.52500818599998 ], [ -64.191834053999969, -31.525025381999967 ], [ -64.191924141999948, -31.525025536999976 ], [ -64.209064827999953, -31.525053611999965 ], [ -64.215771314999984, -31.525055663999979 ], [ -64.227753373999974, -31.525058453999975 ], [ -64.232779615999959, -31.525059290999934 ], [ -64.232851487999937, -31.525048142999935 ], [ -64.232916322999984, -31.525034796999932 ], [ -64.232933436999986, -31.525031274999947 ], [ -64.232981974999973, -31.525020641999959 ], [ -64.233024224999951, -31.525005649999969 ], [ -64.233128091999959, -31.524983851999934 ], [ -64.233130350999943, -31.52498391599994 ], [ -64.23338046799995, -31.524994515999936 ], [ -64.234415610999974, -31.52498391599994 ], [ -64.235140473999934, -31.52497649299994 ], [ -64.23647163399994, -31.52497582899997 ], [ -64.23760813399997, -31.524950109999963 ], [ -64.238781830999983, -31.524968228999967 ], [ -64.24009326099997, -31.52498391499995 ], [ -64.240296773999944, -31.52498634899996 ], [ -64.240507295999976, -31.52498391499995 ], [ -64.24138101799997, -31.524973812999974 ], [ -64.242504056999962, -31.524965609999981 ], [ -64.242625892999968, -31.524959684999942 ], [ -64.242997557999956, -31.52498391499995 ], [ -64.243756550999933, -31.52503339499998 ], [ -64.244822461999945, -31.525032900999975 ], [ -64.245893386999967, -31.525032394999982 ], [ -64.246903384999939, -31.525031909999939 ], [ -64.273862627999961, -31.525011218999964 ], [ -64.277333042999942, -31.525008016999948 ], [ -64.286623706999933, -31.524999443999945 ], [ -64.28668251199997, -31.52499942399993 ], [ -64.286772869999936, -31.524999394999952 ], [ -64.28933176299995, -31.524999591999972 ], [ -64.289833717999954, -31.524999630999957 ], [ -64.309785978999969, -31.524999375999982 ], [ -64.309785987999987, -31.524983906999978 ], [ -64.309785764999958, -31.50924364499997 ], [ -64.309785645999966, -31.492324093999969 ], [ -64.309785644999977, -31.492273508999972 ], [ -64.309785585999975, -31.487339248999945 ], [ -64.309785498999986, -31.477928084999974 ], [ -64.309785446999967, -31.46851692499996 ], [ -64.309785429999977, -31.459105759999943 ], [ -64.309785429999977, -31.458417853999947 ], [ -64.309785432999945, -31.455173568999953 ], [ -64.309785531999978, -31.436625657999969 ], [ -64.309785534999946, -31.43631365899995 ], [ -64.309785760999944, -31.418822552999984 ], [ -64.30978578099996, -31.417271538999955 ], [ -64.309786039999949, -31.417250330999934 ], [ -64.309897899999953, -31.408097608999981 ], [ -64.309945857999935, -31.404173546999971 ], [ -64.310061479999945, -31.394714301999954 ], [ -64.310073142999954, -31.393760099999952 ], [ -64.310106466999969, -31.391033948999961 ], [ -64.310106404999942, -31.385708914999952 ], [ -64.310106147999932, -31.384421028999952 ], [ -64.310104551999984, -31.376425835999953 ], [ -64.310104255999988, -31.37494143899994 ], [ -64.310104022999951, -31.373774293999929 ], [ -64.310101892999967, -31.363099128999977 ], [ -64.310101748999955, -31.363084916999981 ], [ -64.310101741999972, -31.363084252999954 ], [ -64.310100296999963, -31.36294163499997 ], [ -64.310085281999932, -31.361460070999954 ], [ -64.31008757799998, -31.360675205999939 ], [ -64.310093839999979, -31.35884944299994 ], [ -64.310077659999934, -31.356291940999938 ], [ -64.310081921999938, -31.355856793999976 ], [ -64.310095521999983, -31.354468333999932 ], [ -64.310107458999937, -31.352977764999935 ], [ -64.31010312799998, -31.352849970999955 ], [ -64.310094510999932, -31.352521753999952 ], [ -64.310094536999941, -31.351937606999968 ], [ -64.310094306999986, -31.35153823099995 ], [ -64.310093959999961, -31.350935094999954 ], [ -64.310093762999941, -31.35084618999997 ], [ -64.310092663999967, -31.350350320999951 ], [ -64.310091893999981, -31.350204445999964 ], [ -64.310089483999946, -31.349747742999966 ], [ -64.31008825899994, -31.349515576999977 ], [ -64.310073364999937, -31.347327351999979 ], [ -64.310065373999976, -31.346502120999958 ], [ -64.310064895999972, -31.346452777999957 ], [ -64.310040009999966, -31.345385566999937 ], [ -64.310068767999951, -31.343748653999967 ], [ -64.310070462999988, -31.342846881999947 ], [ -64.310070961999941, -31.342581067999959 ], [ -64.310064763999947, -31.34141378399994 ], [ -64.310032757999977, -31.339091664999955 ], [ -64.310031196999944, -31.338978404999978 ], [ -64.310035380999977, -31.338107382999965 ], [ -64.310038568999971, -31.337443758999939 ], [ -64.310033443999941, -31.336602024999934 ], [ -64.31003951699995, -31.336160983999946 ], [ -64.310058989999959, -31.334746763999931 ], [ -64.310091081999985, -31.333911815999954 ], [ -64.310095667999974, -31.333794023999928 ], [ -64.310090860999935, -31.332459704999962 ], [ -64.310087718999966, -31.33158765099995 ], [ -64.310088968999935, -31.330604941999979 ], [ -64.310089300999948, -31.33034358499998 ], [ -64.310077883999952, -31.329730613999971 ], [ -64.310090846999969, -31.328399181999941 ], [ -64.310094034999963, -31.328071803999933 ], [ -64.310102828999959, -31.327231133999931 ], [ -64.310103236999964, -31.327192138999976 ], [ -64.310098013999948, -31.326850430999968 ], [ -64.310087085999953, -31.326135431999944 ], [ -64.310087277999969, -31.325890097999945 ], [ -64.310085406999974, -31.325334435999935 ], [ -64.310078701999942, -31.323342522999951 ], [ -64.310078640999961, -31.323324241999956 ], [ -64.310078411999939, -31.323256245999971 ], [ -64.310078395999938, -31.32325138899995 ], [ -64.310076816999981, -31.32278243899998 ], [ -64.310066219999953, -31.322787804999962 ], [ -64.309957231999988, -31.322842992999938 ], [ -64.30992157299994, -31.322861048999982 ], [ -64.309827834999965, -31.322908513999948 ], [ -64.309786073999987, -31.322922462999941 ], [ -64.309304868999959, -31.323083194999981 ], [ -64.308902086999979, -31.323230806999959 ], [ -64.308871053999951, -31.323242179999966 ], [ -64.308806144999949, -31.32326596799993 ], [ -64.308517402999939, -31.323420554999984 ], [ -64.308404055999972, -31.323486525999954 ], [ -64.308299027999965, -31.323525027999949 ], [ -64.308276836999937, -31.323533162999979 ], [ -64.308204746999934, -31.323559589999945 ], [ -64.307676846999982, -31.323680433999982 ], [ -64.307490540999936, -31.32377377399996 ], [ -64.307208207999963, -31.324014398999964 ], [ -64.30694761899997, -31.324207236999939 ], [ -64.306937761999961, -31.324214530999939 ], [ -64.306807268999933, -31.324311095999974 ], [ -64.306356982999944, -31.324961080999969 ], [ -64.306353287999968, -31.324974748999978 ], [ -64.306351318999987, -31.324982032999969 ], [ -64.306334339999978, -31.325044838999929 ], [ -64.306318277999935, -31.325104252999949 ], [ -64.306316218999939, -31.325111867999965 ], [ -64.306214529999977, -31.325488010999948 ], [ -64.305616068999939, -31.326614585999948 ], [ -64.305601156999955, -31.326707344999932 ], [ -64.305599775999951, -31.326715932999946 ], [ -64.305538345999935, -31.32709805099995 ], [ -64.305538193999951, -31.327098994999972 ], [ -64.30550324799998, -31.327316372999974 ], [ -64.305499275999978, -31.327611862999959 ], [ -64.305180471999961, -31.327615672999968 ], [ -64.304948574999969, -31.327581134999946 ], [ -64.304876275999959, -31.327570366999964 ], [ -64.304656321999971, -31.327537607999943 ], [ -64.304619103999983, -31.327532065999947 ], [ -64.304122438999968, -31.32745809499994 ], [ -64.303995205999968, -31.327504712999939 ], [ -64.303988335999975, -31.327507229999981 ], [ -64.303858361999971, -31.327554851999935 ], [ -64.302917781999952, -31.327745025999945 ], [ -64.301178192999942, -31.328148102999933 ], [ -64.299415605999968, -31.328518415999952 ], [ -64.298823532999961, -31.328648043999976 ], [ -64.298257965999937, -31.328775092999933 ], [ -64.298256340999956, -31.328711815999952 ], [ -64.298249073999955, -31.328428886999973 ], [ -64.298240978999956, -31.328113740999981 ], [ -64.298240177999958, -31.328085293999948 ], [ -64.298223404999987, -31.327489243999935 ], [ -64.298212476999936, -31.327006713999936 ], [ -64.298211978999973, -31.326984726999967 ], [ -64.297704189999934, -31.326873534999947 ], [ -64.297233297999981, -31.326783299999931 ], [ -64.297226556999988, -31.326642529999958 ], [ -64.297226307999949, -31.326637319999975 ], [ -64.298178544999985, -31.326829923999981 ], [ -64.299356546999945, -31.327074770999957 ], [ -64.29932334199998, -31.326246338999965 ], [ -64.299314190999951, -31.325878150999984 ], [ -64.299308906999954, -31.325729107999962 ], [ -64.299293785999964, -31.325302589999978 ], [ -64.29925740799996, -31.324276386999941 ], [ -64.299240069999939, -31.32324637499994 ], [ -64.299184976999982, -31.322233129999972 ], [ -64.299171301999934, -31.321205488999965 ], [ -64.299171231999935, -31.321200314999942 ], [ -64.299126798999964, -31.320169771999929 ], [ -64.299126790999935, -31.320169503999978 ], [ -64.299114324999948, -31.319140644999948 ], [ -64.299114257999975, -31.319135470999981 ], [ -64.299090174999947, -31.318112489999976 ], [ -64.29903739699995, -31.317059058999973 ], [ -64.299018626999953, -31.316695827999979 ], [ -64.298982716999944, -31.316529734999961 ], [ -64.29897552999995, -31.316496493999978 ], [ -64.298888781999949, -31.316337585999975 ], [ -64.298775426999953, -31.316200281999954 ], [ -64.29874270199997, -31.316066952999961 ], [ -64.298742076999986, -31.316064407999932 ], [ -64.298771135999971, -31.315926478999984 ], [ -64.298859397999934, -31.315666868999983 ], [ -64.298919047999959, -31.315443867999932 ], [ -64.29894229599995, -31.315384651999977 ], [ -64.298986206999984, -31.315272806999928 ], [ -64.298998537999978, -31.315023261999954 ], [ -64.298998653999945, -31.31502091699997 ], [ -64.298932084999933, -31.314013312999975 ], [ -64.298893959999987, -31.314013849999981 ], [ -64.297723367999936, -31.314030349999939 ], [ -64.296521066999958, -31.314060688999973 ], [ -64.295329484999968, -31.314091281999936 ], [ -64.294602391999945, -31.314109945999974 ], [ -64.293889758999967, -31.314101807999975 ], [ -64.288259644999982, -31.314258634999931 ], [ -64.288227433999964, -31.313405104999958 ], [ -64.288116379999963, -31.308616264999955 ], [ -64.288116318999982, -31.308613642999944 ], [ -64.288116093999975, -31.308551191999982 ], [ -64.288116023999976, -31.30853172299993 ], [ -64.288116007999974, -31.308527222999942 ], [ -64.288111588999982, -31.307300315999953 ], [ -64.288111569999955, -31.307295139999951 ], [ -64.287064645999976, -31.307333670999981 ], [ -64.287012095999955, -31.308185980999951 ], [ -64.285567279999952, -31.308526549999954 ], [ -64.285547478999945, -31.308531683999945 ], [ -64.285464167999976, -31.308553282999981 ] ] ] } }
]
}
